{"type": "FeatureCollection", "features": [ {"type": "Feature", "properties": {"norad_id": 66386, "name": "STARLINK-35651", "group": "last-30-days", "lat": 41.82970828674905, "lon": -16.802764029453495, "alt_km": 440.982557035667, "timestamp": "2025-12-04T23:34:04.489547+00:00", "meta": {"OBJECT_NAME": "STARLINK-35651", "OBJECT_ID": "2025-257G", "EPOCH": "2025-12-04T18:00:02.000160", "MEAN_MOTION": 15.39506783, "ECCENTRICITY": 0.0001703, "INCLINATION": 53.1603, "RA_OF_ASC_NODE": 302.1449, "ARG_OF_PERICENTER": 94.3347, "MEAN_ANOMALY": 115.7974, "EPHEMERIS_TYPE": 0, "CLASSIFICATION_TYPE": "U", "NORAD_CAT_ID": 66386, "ELEMENT_SET_NO": 999, "REV_AT_EPOCH": 521, "BSTAR": 0.002853, "MEAN_MOTION_DOT": 0.00115026, "MEAN_MOTION_DDOT": 0}, "tle": {"line1": "1 66386U 25257G   25338.75002315  .00115026  00000+0  28530-2 0  9998", "line2": "2 66386  53.1603 302.1449 0001703  94.3347 115.7974 15.39506783  5212"}}, "geometry": {"type": "Point", "coordinates": [-16.802764029453495, 41.82970828674905]}}, {"type": "Feature", "properties": {"norad_id": 66387, "name": "STARLINK-35661", "group": "last-30-days", "lat": 42.81734531523931, "lon": -14.951416679141733, "alt_km": 441.1127537714174, "timestamp": "2025-12-04T23:34:04.489557+00:00", "meta": {"OBJECT_NAME": "STARLINK-35661", "OBJECT_ID": "2025-257H", "EPOCH": "2025-12-04T18:00:02.000160", "MEAN_MOTION": 15.39536451, "ECCENTRICITY": 8.17e-05, "INCLINATION": 53.1602, "RA_OF_ASC_NODE": 302.1416, "ARG_OF_PERICENTER": 83.1409, "MEAN_ANOMALY": 128.6411, "EPHEMERIS_TYPE": 0, "CLASSIFICATION_TYPE": "U", "NORAD_CAT_ID": 66387, "ELEMENT_SET_NO": 999, "REV_AT_EPOCH": 521, "BSTAR": 0.003432, "MEAN_MOTION_DOT": 0.00139027, "MEAN_MOTION_DDOT": 0}, "tle": {"line1": "1 66387U 25257H   25338.75002315  .00139027  00000+0  34320-2 0  9990", "line2": "2 66387  53.1602 302.1416 0000817  83.1409 128.6411 15.39536451  5210"}}, "geometry": {"type": "Point", "coordinates": [-14.951416679141733, 42.81734531523931]}}, {"type": "Feature", "properties": {"norad_id": 66388, "name": "STARLINK-35647", "group": "last-30-days", "lat": 52.44697660044188, "lon": 18.20536057533833, "alt_km": 439.1430544548821, "timestamp": "2025-12-04T23:34:04.489568+00:00", "meta": {"OBJECT_NAME": "STARLINK-35647", "OBJECT_ID": "2025-257J", "EPOCH": "2025-12-04T18:00:02.000160", "MEAN_MOTION": 15.39633477, "ECCENTRICITY": 0.000162, "INCLINATION": 53.1603, "RA_OF_ASC_NODE": 302.0937, "ARG_OF_PERICENTER": 87.9401, "MEAN_ANOMALY": 147.8518, "EPHEMERIS_TYPE": 0, "CLASSIFICATION_TYPE": "U", "NORAD_CAT_ID": 66388, "ELEMENT_SET_NO": 999, "REV_AT_EPOCH": 521, "BSTAR": -0.0017982, "MEAN_MOTION_DOT": -0.00071688, "MEAN_MOTION_DDOT": 0}, "tle": {"line1": "1 66388U 25257J   25338.75002315 -.00071688  00000+0 -17982-2 0  9996", "line2": "2 66388  53.1603 302.0937 0001620  87.9401 147.8518 15.39633477  5213"}}, "geometry": {"type": "Point", "coordinates": [18.20536057533833, 52.44697660044188]}}, {"type": "Feature", "properties": {"norad_id": 66389, "name": "STARLINK-35694", "group": "last-30-days", "lat": 49.814601991039, "lon": 58.37291881200653, "alt_km": 432.19748466119927, "timestamp": "2025-12-04T23:34:04.489578+00:00", "meta": {"OBJECT_NAME": "STARLINK-35694", "OBJECT_ID": "2025-257K", "EPOCH": "2025-12-04T18:00:02.000160", "MEAN_MOTION": 15.43187963, "ECCENTRICITY": 0.0001334, "INCLINATION": 53.1599, "RA_OF_ASC_NODE": 302.0486, "ARG_OF_PERICENTER": 98.5313, "MEAN_ANOMALY": 159.7056, "EPHEMERIS_TYPE": 0, "CLASSIFICATION_TYPE": "U", "NORAD_CAT_ID": 66389, "ELEMENT_SET_NO": 999, "REV_AT_EPOCH": 521, "BSTAR": -0.050219, "MEAN_MOTION_DOT": -0.02015016, "MEAN_MOTION_DDOT": 0}, "tle": {"line1": "1 66389U 25257K   25338.75002315 -.02015016  00000+0 -50219-1 0  9991", "line2": "2 66389  53.1599 302.0486 0001334  98.5313 159.7056 15.43187963  5217"}}, "geometry": {"type": "Point", "coordinates": [58.37291881200653, 49.814601991039]}}, {"type": "Feature", "properties": {"norad_id": 66390, "name": "STARLINK-35665", "group": "last-30-days", "lat": 13.99203172688518, "lon": 110.07034376998534, "alt_km": 416.87359702777576, "timestamp": "2025-12-04T23:34:04.489588+00:00", "meta": {"OBJECT_NAME": "STARLINK-35665", "OBJECT_ID": "2025-257L", "EPOCH": "2025-12-04T15:07:48.539424", "MEAN_MOTION": 15.49357903, "ECCENTRICITY": 0.0002131, "INCLINATION": 53.1592, "RA_OF_ASC_NODE": 302.5195, "ARG_OF_PERICENTER": 81.2033, "MEAN_ANOMALY": 278.9217, "EPHEMERIS_TYPE": 0, "CLASSIFICATION_TYPE": "U", "NORAD_CAT_ID": 66390, "ELEMENT_SET_NO": 999, "REV_AT_EPOCH": 522, "BSTAR": 0.0034253, "MEAN_MOTION_DOT": 0.00195224, "MEAN_MOTION_DDOT": 0}, "tle": {"line1": "1 66390U 25257L   25338.63042291  .00195224  00000+0  34253-2 0  9994", "line2": "2 66390  53.1592 302.5195 0002131  81.2033 278.9217 15.49357903  5221"}}, "geometry": {"type": "Point", "coordinates": [110.07034376998534, 13.99203172688518]}}, {"type": "Feature", "properties": {"norad_id": 66391, "name": "STARLINK-35656", "group": "last-30-days", "lat": 49.51777295037696, "lon": 59.49143223535187, "alt_km": 439.9271638658829, "timestamp": "2025-12-04T23:34:04.489599+00:00", "meta": {"OBJECT_NAME": "STARLINK-35656", "OBJECT_ID": "2025-257M", "EPOCH": "2025-12-04T18:00:02.000160", "MEAN_MOTION": 15.39574833, "ECCENTRICITY": 0.0001164, "INCLINATION": 53.1603, "RA_OF_ASC_NODE": 302.0283, "ARG_OF_PERICENTER": 106.488, "MEAN_ANOMALY": 155.1336, "EPHEMERIS_TYPE": 0, "CLASSIFICATION_TYPE": "U", "NORAD_CAT_ID": 66391, "ELEMENT_SET_NO": 999, "REV_AT_EPOCH": 531, "BSTAR": -7.8964e-05, "MEAN_MOTION_DOT": -3.551e-05, "MEAN_MOTION_DDOT": 0}, "tle": {"line1": "1 66391U 25257M   25338.75002315 -.00003551  00000+0 -78964-4 0  9993", "line2": "2 66391  53.1603 302.0283 0001164 106.4880 155.1336 15.39574833  5313"}}, "geometry": {"type": "Point", "coordinates": [59.49143223535187, 49.51777295037696]}}, {"type": "Feature", "properties": {"norad_id": 66392, "name": "STARLINK-35671", "group": "last-30-days", "lat": 52.7329943700429, "lon": 21.161500119791963, "alt_km": 438.958768616194, "timestamp": "2025-12-04T23:34:04.489609+00:00", "meta": {"OBJECT_NAME": "STARLINK-35671", "OBJECT_ID": "2025-257N", "EPOCH": "2025-12-04T18:00:02.000160", "MEAN_MOTION": 15.39580561, "ECCENTRICITY": 0.0001903, "INCLINATION": 53.1604, "RA_OF_ASC_NODE": 302.0892, "ARG_OF_PERICENTER": 96.4539, "MEAN_ANOMALY": 141.1844, "EPHEMERIS_TYPE": 0, "CLASSIFICATION_TYPE": "U", "NORAD_CAT_ID": 66392, "ELEMENT_SET_NO": 999, "REV_AT_EPOCH": 521, "BSTAR": 0.00065799, "MEAN_MOTION_DOT": 0.00025975, "MEAN_MOTION_DDOT": 0}, "tle": {"line1": "1 66392U 25257N   25338.75002315  .00025975  00000+0  65799-3 0  9997", "line2": "2 66392  53.1604 302.0892 0001903  96.4539 141.1844 15.39580561  5214"}}, "geometry": {"type": "Point", "coordinates": [21.161500119791963, 52.7329943700429]}}, {"type": "Feature", "properties": {"norad_id": 66393, "name": "STARLINK-35652", "group": "last-30-days", "lat": 42.59785131639513, "lon": 77.34098563039838, "alt_km": 425.0102827124865, "timestamp": "2025-12-04T23:34:04.489622+00:00", "meta": {"OBJECT_NAME": "STARLINK-35652", "OBJECT_ID": "2025-257P", "EPOCH": "2025-12-04T18:00:02.000160", "MEAN_MOTION": 15.46041181, "ECCENTRICITY": 0.0001164, "INCLINATION": 53.1597, "RA_OF_ASC_NODE": 302.0234, "ARG_OF_PERICENTER": 111.5412, "MEAN_ANOMALY": 159.2274, "EPHEMERIS_TYPE": 0, "CLASSIFICATION_TYPE": "U", "NORAD_CAT_ID": 66393, "ELEMENT_SET_NO": 999, "REV_AT_EPOCH": 521, "BSTAR": -0.045841, "MEAN_MOTION_DOT": -0.02027223, "MEAN_MOTION_DDOT": 0}, "tle": {"line1": "1 66393U 25257P   25338.75002315 -.02027223  00000+0 -45841-1 0  9994", "line2": "2 66393  53.1597 302.0234 0001164 111.5412 159.2274 15.46041181  5219"}}, "geometry": {"type": "Point", "coordinates": [77.34098563039838, 42.59785131639513]}}, {"type": "Feature", "properties": {"norad_id": 66394, "name": "STARLINK-35672", "group": "last-30-days", "lat": 40.85892987840731, "lon": 80.48515428242132, "alt_km": 425.90398602963796, "timestamp": "2025-12-04T23:34:04.489636+00:00", "meta": {"OBJECT_NAME": "STARLINK-35672", "OBJECT_ID": "2025-257Q", "EPOCH": "2025-12-04T18:00:02.000160", "MEAN_MOTION": 15.45775147, "ECCENTRICITY": 0.0001384, "INCLINATION": 53.1597, "RA_OF_ASC_NODE": 302.016, "ARG_OF_PERICENTER": 108.9213, "MEAN_ANOMALY": 164.9843, "EPHEMERIS_TYPE": 0, "CLASSIFICATION_TYPE": "U", "NORAD_CAT_ID": 66394, "ELEMENT_SET_NO": 999, "REV_AT_EPOCH": 521, "BSTAR": -0.045845, "MEAN_MOTION_DOT": -0.02010902, "MEAN_MOTION_DDOT": 0}, "tle": {"line1": "1 66394U 25257Q   25338.75002315 -.02010902  00000+0 -45845-1 0  9995", "line2": "2 66394  53.1597 302.0160 0001384 108.9213 164.9843 15.45775147  5211"}}, "geometry": {"type": "Point", "coordinates": [80.48515428242132, 40.85892987840731]}}, {"type": "Feature", "properties": {"norad_id": 66395, "name": "STARLINK-35681", "group": "last-30-days", "lat": 34.0613264204138, "lon": 90.43798068123795, "alt_km": 413.4812937395027, "timestamp": "2025-12-04T23:34:04.489647+00:00", "meta": {"OBJECT_NAME": "STARLINK-35681", "OBJECT_ID": "2025-257R", "EPOCH": "2025-12-04T09:03:09.457056", "MEAN_MOTION": 15.49346125, "ECCENTRICITY": 0.0001279, "INCLINATION": 53.1595, "RA_OF_ASC_NODE": 303.7866, "ARG_OF_PERICENTER": 91.9394, "MEAN_ANOMALY": 268.1761, "EPHEMERIS_TYPE": 0, "CLASSIFICATION_TYPE": "U", "NORAD_CAT_ID": 66395, "ELEMENT_SET_NO": 999, "REV_AT_EPOCH": 501, "BSTAR": 0.001087, "MEAN_MOTION_DOT": 0.00060558, "MEAN_MOTION_DDOT": 0}, "tle": {"line1": "1 66395U 25257R   25338.37719279  .00060558  00000+0  10870-2 0  9997", "line2": "2 66395  53.1595 303.7866 0001279  91.9394 268.1761 15.49346125  5013"}}, "geometry": {"type": "Point", "coordinates": [90.43798068123795, 34.0613264204138]}}]}